[{"OBJECT_NAME":"SDA_1666","OBJECT_ID":"2025-230C","EPOCH":"2026-03-09T17:51:27.338688","MEAN_MOTION":13.84647296,"ECCENTRICITY":0.0003465,"INCLINATION":81.2989,"RA_OF_ASC_NODE":303.9667,"ARG_OF_PERICENTER":65.2914,"MEAN_ANOMALY":294.8603,"EPHEMERIS_TYPE":0,"CLASSIFICATION_TYPE":"U","NORAD_CAT_ID":65976,"ELEMENT_SET_NO":999,"REV_AT_EPOCH":2004,"BSTAR":0.00027119407,"MEAN_MOTION_DOT":3.16e-6,"MEAN_MOTION_DDOT":0},{"OBJECT_NAME":"COSMOS 1275 DEB","OBJECT_ID":"1981-053BB","EPOCH":"2026-03-09T13:41:31.292448","MEAN_MOTION":13.5973523,"ECCENTRICITY":0.01310115,"INCLINATION":83.0073,"RA_OF_ASC_NODE":101.5404,"ARG_OF_PERICENTER":43.1752,"MEAN_ANOMALY":76.6205,"EPHEMERIS_TYPE":0,"CLASSIFICATION_TYPE":"U","NORAD_CAT_ID":12707,"ELEMENT_SET_NO":999,"REV_AT_EPOCH":20539,"BSTAR":0.00039369275,"MEAN_MOTION_DOT":3.25e-6,"MEAN_MOTION_DDOT":0}]
